HIERARCHY
ROOT hip
{
  OFFSET 0 0 0
  CHANNELS 6 Xposition Yposition Zposition Zrotation Yrotation Xrotation
  JOINT abdomen
  {
    OFFSET 0 20.7 0
    CHANNELS 3 Zrotation Xrotation Yrotation
    JOINT chest
    {
      OFFSET 0 11.7 0
      CHANNELS 3 Zrotation Xrotation Yrotation
      JOINT neck
      {
        OFFSET 0 22.2 0
        CHANNELS 3 Zrotation Xrotation Yrotation
        JOINT head
        {
          OFFSET 0 7.1 0
          CHANNELS 3 Zrotation Xrotation Yrotation
          End Site
          {
            OFFSET 0 10 0
          }
        }
      }
      JOINT lCollar
      {
        OFFSET 4 18 0
        CHANNELS 3 Zrotation Xrotation Yrotation
        JOINT lShldr
        {
          OFFSET 9 0 0
          CHANNELS 3 Zrotation Xrotation Yrotation
          JOINT lForeArm
          {
            OFFSET 26 0 0
            CHANNELS 3 Zrotation Xrotation Yrotation
            JOINT lHand
            {
              OFFSET 24 0 0
              CHANNELS 3 Zrotation Xrotation Yrotation
              End Site
              {
                OFFSET 8 0 0
              }
            }
          }
        }
      }
      JOINT rCollar
      {
        OFFSET -4 18 0
        CHANNELS 3 Zrotation Xrotation Yrotation
        JOINT rShldr
        {
          OFFSET -9 0 0
          CHANNELS 3 Zrotation Xrotation Yrotation
          JOINT rForeArm
          {
            OFFSET -26 0 0
            CHANNELS 3 Zrotation Xrotation Yrotation
            JOINT rHand
            {
              OFFSET -24 0 0
              CHANNELS 3 Zrotation Xrotation Yrotation
              End Site
              {
                OFFSET -8 0 0
              }
            }
          }
        }
      }
    }
  }
  JOINT lThigh
  {
    OFFSET 8 -2 0
    CHANNELS 3 Zrotation Xrotation Yrotation
    JOINT lShin
    {
      OFFSET 0 -42 0
      CHANNELS 3 Zrotation Xrotation Yrotation
      JOINT lFoot
      {
        OFFSET 0 -42 0
        CHANNELS 3 Zrotation Xrotation Yrotation
        End Site
        {
          OFFSET 0 -5 14
        }
      }
    }
  }
  JOINT rThigh
  {
    OFFSET -8 -2 0
    CHANNELS 3 Zrotation Xrotation Yrotation
    JOINT rShin
    {
      OFFSET 0 -42 0
      CHANNELS 3 Zrotation Xrotation Yrotation
      JOINT rFoot
      {
        OFFSET 0 -42 0
        CHANNELS 3 Zrotation Xrotation Yrotation
        End Site
        {
          OFFSET 0 -5 14
        }
      }
    }
  }
}
MOTION
Frames: 60
Frame Time: 0.033333
0 88.0 0 0 14 -6 0 6 0 0 2 0 0 -3 0 0 -0.0 4 0 -8 0 35 -40.0 0 0 -95 0 0 0 0 0 -8 0 -35 -45.0 0 0 -100 0 0 0 0 0 18.0 10 0 -28 0 0 12 0 0 -14.0 -8 0 -24 0 0 10 0
0 88.1568 0 0 14 -6 0 6 0 0 2 0 0 -3 0 0 -0.2091 4 0 -8 0 35 -39.3728 0 0 -95 0 0 0 0 0 -8 0 -35 -45.6272 0 0 -100 0 0 0 0 0 18.3136 10 0 -28 0 0 12 0 0 -14.3136 -8 0 -24 0 0 10 0
0 88.3119 0 0 14 -6 0 6 0 0 2 0 0 -3 0 0 -0.4158 4 0 -8 0 35 -38.7525 0 0 -95 0 0 0 0 0 -8 0 -35 -46.2475 0 0 -100 0 0 0 0 0 18.6237 10 0 -28 0 0 12 0 0 -14.6237 -8 0 -24 0 0 10 0
0 88.4635 0 0 14 -6 0 6 0 0 2 0 0 -3 0 0 -0.618 4 0 -8 0 35 -38.1459 0 0 -95 0 0 0 0 0 -8 0 -35 -46.8541 0 0 -100 0 0 0 0 0 18.9271 10 0 -28 0 0 12 0 0 -14.9271 -8 0 -24 0 0 10 0
0 88.6101 0 0 14 -6 0 6 0 0 2 0 0 -3 0 0 -0.8135 4 0 -8 0 35 -37.5596 0 0 -95 0 0 0 0 0 -8 0 -35 -47.4404 0 0 -100 0 0 0 0 0 19.2202 10 0 -28 0 0 12 0 0 -15.2202 -8 0 -24 0 0 10 0
0 88.75 0 0 14 -6 0 6 0 0 2 0 0 -3 0 0 -1.0 4 0 -8 0 35 -37.0 0 0 -95 0 0 0 0 0 -8 0 -35 -48.0 0 0 -100 0 0 0 0 0 19.5 10 0 -28 0 0 12 0 0 -15.5 -8 0 -24 0 0 10 0
0 88.8817 0 0 14 -6 0 6 0 0 2 0 0 -3 0 0 -1.1756 4 0 -8 0 35 -36.4733 0 0 -95 0 0 0 0 0 -8 0 -35 -48.5267 0 0 -100 0 0 0 0 0 19.7634 10 0 -28 0 0 12 0 0 -15.7634 -8 0 -24 0 0 10 0
0 89.0037 0 0 14 -6 0 6 0 0 2 0 0 -3 0 0 -1.3383 4 0 -8 0 35 -35.9852 0 0 -95 0 0 0 0 0 -8 0 -35 -49.0148 0 0 -100 0 0 0 0 0 20.0074 10 0 -28 0 0 12 0 0 -16.0074 -8 0 -24 0 0 10 0
0 89.1147 0 0 14 -6 0 6 0 0 2 0 0 -3 0 0 -1.4863 4 0 -8 0 35 -35.5411 0 0 -95 0 0 0 0 0 -8 0 -35 -49.4589 0 0 -100 0 0 0 0 0 20.2294 10 0 -28 0 0 12 0 0 -16.2294 -8 0 -24 0 0 10 0
0 89.2135 0 0 14 -6 0 6 0 0 2 0 0 -3 0 0 -1.618 4 0 -8 0 35 -35.1459 0 0 -95 0 0 0 0 0 -8 0 -35 -49.8541 0 0 -100 0 0 0 0 0 20.4271 10 0 -28 0 0 12 0 0 -16.4271 -8 0 -24 0 0 10 0
0 89.299 0 0 14 -6 0 6 0 0 2 0 0 -3 0 0 -1.7321 4 0 -8 0 35 -34.8038 0 0 -95 0 0 0 0 0 -8 0 -35 -50.1962 0 0 -100 0 0 0 0 0 20.5981 10 0 -28 0 0 12 0 0 -16.5981 -8 0 -24 0 0 10 0
0 89.3703 0 0 14 -6 0 6 0 0 2 0 0 -3 0 0 -1.8271 4 0 -8 0 35 -34.5187 0 0 -95 0 0 0 0 0 -8 0 -35 -50.4813 0 0 -100 0 0 0 0 0 20.7406 10 0 -28 0 0 12 0 0 -16.7406 -8 0 -24 0 0 10 0
0 89.4266 0 0 14 -6 0 6 0 0 2 0 0 -3 0 0 -1.9021 4 0 -8 0 35 -34.2937 0 0 -95 0 0 0 0 0 -8 0 -35 -50.7063 0 0 -100 0 0 0 0 0 20.8532 10 0 -28 0 0 12 0 0 -16.8532 -8 0 -24 0 0 10 0
0 89.4672 0 0 14 -6 0 6 0 0 2 0 0 -3 0 0 -1.9563 4 0 -8 0 35 -34.1311 0 0 -95 0 0 0 0 0 -8 0 -35 -50.8689 0 0 -100 0 0 0 0 0 20.9344 10 0 -28 0 0 12 0 0 -16.9344 -8 0 -24 0 0 10 0
0 89.4918 0 0 14 -6 0 6 0 0 2 0 0 -3 0 0 -1.989 4 0 -8 0 35 -34.0329 0 0 -95 0 0 0 0 0 -8 0 -35 -50.9671 0 0 -100 0 0 0 0 0 20.9836 10 0 -28 0 0 12 0 0 -16.9836 -8 0 -24 0 0 10 0
0 89.5 0 0 14 -6 0 6 0 0 2 0 0 -3 0 0 -2.0 4 0 -8 0 35 -34.0 0 0 -95 0 0 0 0 0 -8 0 -35 -51.0 0 0 -100 0 0 0 0 0 21.0 10 0 -28 0 0 12 0 0 -17.0 -8 0 -24 0 0 10 0
0 89.4918 0 0 14 -6 0 6 0 0 2 0 0 -3 0 0 -1.989 4 0 -8 0 35 -34.0329 0 0 -95 0 0 0 0 0 -8 0 -35 -50.9671 0 0 -100 0 0 0 0 0 20.9836 10 0 -28 0 0 12 0 0 -16.9836 -8 0 -24 0 0 10 0
0 89.4672 0 0 14 -6 0 6 0 0 2 0 0 -3 0 0 -1.9563 4 0 -8 0 35 -34.1311 0 0 -95 0 0 0 0 0 -8 0 -35 -50.8689 0 0 -100 0 0 0 0 0 20.9344 10 0 -28 0 0 12 0 0 -16.9344 -8 0 -24 0 0 10 0
0 89.4266 0 0 14 -6 0 6 0 0 2 0 0 -3 0 0 -1.9021 4 0 -8 0 35 -34.2937 0 0 -95 0 0 0 0 0 -8 0 -35 -50.7063 0 0 -100 0 0 0 0 0 20.8532 10 0 -28 0 0 12 0 0 -16.8532 -8 0 -24 0 0 10 0
0 89.3703 0 0 14 -6 0 6 0 0 2 0 0 -3 0 0 -1.8271 4 0 -8 0 35 -34.5187 0 0 -95 0 0 0 0 0 -8 0 -35 -50.4813 0 0 -100 0 0 0 0 0 20.7406 10 0 -28 0 0 12 0 0 -16.7406 -8 0 -24 0 0 10 0
0 89.299 0 0 14 -6 0 6 0 0 2 0 0 -3 0 0 -1.7321 4 0 -8 0 35 -34.8038 0 0 -95 0 0 0 0 0 -8 0 -35 -50.1962 0 0 -100 0 0 0 0 0 20.5981 10 0 -28 0 0 12 0 0 -16.5981 -8 0 -24 0 0 10 0
0 89.2135 0 0 14 -6 0 6 0 0 2 0 0 -3 0 0 -1.618 4 0 -8 0 35 -35.1459 0 0 -95 0 0 0 0 0 -8 0 -35 -49.8541 0 0 -100 0 0 0 0 0 20.4271 10 0 -28 0 0 12 0 0 -16.4271 -8 0 -24 0 0 10 0
0 89.1147 0 0 14 -6 0 6 0 0 2 0 0 -3 0 0 -1.4863 4 0 -8 0 35 -35.5411 0 0 -95 0 0 0 0 0 -8 0 -35 -49.4589 0 0 -100 0 0 0 0 0 20.2294 10 0 -28 0 0 12 0 0 -16.2294 -8 0 -24 0 0 10 0
0 89.0037 0 0 14 -6 0 6 0 0 2 0 0 -3 0 0 -1.3383 4 0 -8 0 35 -35.9852 0 0 -95 0 0 0 0 0 -8 0 -35 -49.0148 0 0 -100 0 0 0 0 0 20.0074 10 0 -28 0 0 12 0 0 -16.0074 -8 0 -24 0 0 10 0
0 88.8817 0 0 14 -6 0 6 0 0 2 0 0 -3 0 0 -1.1756 4 0 -8 0 35 -36.4733 0 0 -95 0 0 0 0 0 -8 0 -35 -48.5267 0 0 -100 0 0 0 0 0 19.7634 10 0 -28 0 0 12 0 0 -15.7634 -8 0 -24 0 0 10 0
0 88.75 0 0 14 -6 0 6 0 0 2 0 0 -3 0 0 -1.0 4 0 -8 0 35 -37.0 0 0 -95 0 0 0 0 0 -8 0 -35 -48.0 0 0 -100 0 0 0 0 0 19.5 10 0 -28 0 0 12 0 0 -15.5 -8 0 -24 0 0 10 0
0 88.6101 0 0 14 -6 0 6 0 0 2 0 0 -3 0 0 -0.8135 4 0 -8 0 35 -37.5596 0 0 -95 0 0 0 0 0 -8 0 -35 -47.4404 0 0 -100 0 0 0 0 0 19.2202 10 0 -28 0 0 12 0 0 -15.2202 -8 0 -24 0 0 10 0
0 88.4635 0 0 14 -6 0 6 0 0 2 0 0 -3 0 0 -0.618 4 0 -8 0 35 -38.1459 0 0 -95 0 0 0 0 0 -8 0 -35 -46.8541 0 0 -100 0 0 0 0 0 18.9271 10 0 -28 0 0 12 0 0 -14.9271 -8 0 -24 0 0 10 0
0 88.3119 0 0 14 -6 0 6 0 0 2 0 0 -3 0 0 -0.4158 4 0 -8 0 35 -38.7525 0 0 -95 0 0 0 0 0 -8 0 -35 -46.2475 0 0 -100 0 0 0 0 0 18.6237 10 0 -28 0 0 12 0 0 -14.6237 -8 0 -24 0 0 10 0
0 88.1568 0 0 14 -6 0 6 0 0 2 0 0 -3 0 0 -0.2091 4 0 -8 0 35 -39.3728 0 0 -95 0 0 0 0 0 -8 0 -35 -45.6272 0 0 -100 0 0 0 0 0 18.3136 10 0 -28 0 0 12 0 0 -14.3136 -8 0 -24 0 0 10 0
0 88.0 0 0 14 -6 0 6 0 0 2 0 0 -3 0 0 -0.0 4 0 -8 0 35 -40.0 0 0 -95 0 0 0 0 0 -8 0 -35 -45.0 0 0 -100 0 0 0 0 0 18.0 10 0 -28 0 0 12 0 0 -14.0 -8 0 -24 0 0 10 0
0 87.8432 0 0 14 -6 0 6 0 0 2 0 0 -3 0 0 0.2091 4 0 -8 0 35 -40.6272 0 0 -95 0 0 0 0 0 -8 0 -35 -44.3728 0 0 -100 0 0 0 0 0 17.6864 10 0 -28 0 0 12 0 0 -13.6864 -8 0 -24 0 0 10 0
0 87.6881 0 0 14 -6 0 6 0 0 2 0 0 -3 0 0 0.4158 4 0 -8 0 35 -41.2475 0 0 -95 0 0 0 0 0 -8 0 -35 -43.7525 0 0 -100 0 0 0 0 0 17.3763 10 0 -28 0 0 12 0 0 -13.3763 -8 0 -24 0 0 10 0
0 87.5365 0 0 14 -6 0 6 0 0 2 0 0 -3 0 0 0.618 4 0 -8 0 35 -41.8541 0 0 -95 0 0 0 0 0 -8 0 -35 -43.1459 0 0 -100 0 0 0 0 0 17.0729 10 0 -28 0 0 12 0 0 -13.0729 -8 0 -24 0 0 10 0
0 87.3899 0 0 14 -6 0 6 0 0 2 0 0 -3 0 0 0.8135 4 0 -8 0 35 -42.4404 0 0 -95 0 0 0 0 0 -8 0 -35 -42.5596 0 0 -100 0 0 0 0 0 16.7798 10 0 -28 0 0 12 0 0 -12.7798 -8 0 -24 0 0 10 0
0 87.25 0 0 14 -6 0 6 0 0 2 0 0 -3 0 0 1.0 4 0 -8 0 35 -43.0 0 0 -95 0 0 0 0 0 -8 0 -35 -42.0 0 0 -100 0 0 0 0 0 16.5 10 0 -28 0 0 12 0 0 -12.5 -8 0 -24 0 0 10 0
0 87.1183 0 0 14 -6 0 6 0 0 2 0 0 -3 0 0 1.1756 4 0 -8 0 35 -43.5267 0 0 -95 0 0 0 0 0 -8 0 -35 -41.4733 0 0 -100 0 0 0 0 0 16.2366 10 0 -28 0 0 12 0 0 -12.2366 -8 0 -24 0 0 10 0
0 86.9963 0 0 14 -6 0 6 0 0 2 0 0 -3 0 0 1.3383 4 0 -8 0 35 -44.0148 0 0 -95 0 0 0 0 0 -8 0 -35 -40.9852 0 0 -100 0 0 0 0 0 15.9926 10 0 -28 0 0 12 0 0 -11.9926 -8 0 -24 0 0 10 0
0 86.8853 0 0 14 -6 0 6 0 0 2 0 0 -3 0 0 1.4863 4 0 -8 0 35 -44.4589 0 0 -95 0 0 0 0 0 -8 0 -35 -40.5411 0 0 -100 0 0 0 0 0 15.7706 10 0 -28 0 0 12 0 0 -11.7706 -8 0 -24 0 0 10 0
0 86.7865 0 0 14 -6 0 6 0 0 2 0 0 -3 0 0 1.618 4 0 -8 0 35 -44.8541 0 0 -95 0 0 0 0 0 -8 0 -35 -40.1459 0 0 -100 0 0 0 0 0 15.5729 10 0 -28 0 0 12 0 0 -11.5729 -8 0 -24 0 0 10 0
0 86.701 0 0 14 -6 0 6 0 0 2 0 0 -3 0 0 1.7321 4 0 -8 0 35 -45.1962 0 0 -95 0 0 0 0 0 -8 0 -35 -39.8038 0 0 -100 0 0 0 0 0 15.4019 10 0 -28 0 0 12 0 0 -11.4019 -8 0 -24 0 0 10 0
0 86.6297 0 0 14 -6 0 6 0 0 2 0 0 -3 0 0 1.8271 4 0 -8 0 35 -45.4813 0 0 -95 0 0 0 0 0 -8 0 -35 -39.5187 0 0 -100 0 0 0 0 0 15.2594 10 0 -28 0 0 12 0 0 -11.2594 -8 0 -24 0 0 10 0
0 86.5734 0 0 14 -6 0 6 0 0 2 0 0 -3 0 0 1.9021 4 0 -8 0 35 -45.7063 0 0 -95 0 0 0 0 0 -8 0 -35 -39.2937 0 0 -100 0 0 0 0 0 15.1468 10 0 -28 0 0 12 0 0 -11.1468 -8 0 -24 0 0 10 0
0 86.5328 0 0 14 -6 0 6 0 0 2 0 0 -3 0 0 1.9563 4 0 -8 0 35 -45.8689 0 0 -95 0 0 0 0 0 -8 0 -35 -39.1311 0 0 -100 0 0 0 0 0 15.0656 10 0 -28 0 0 12 0 0 -11.0656 -8 0 -24 0 0 10 0
0 86.5082 0 0 14 -6 0 6 0 0 2 0 0 -3 0 0 1.989 4 0 -8 0 35 -45.9671 0 0 -95 0 0 0 0 0 -8 0 -35 -39.0329 0 0 -100 0 0 0 0 0 15.0164 10 0 -28 0 0 12 0 0 -11.0164 -8 0 -24 0 0 10 0
0 86.5 0 0 14 -6 0 6 0 0 2 0 0 -3 0 0 2.0 4 0 -8 0 35 -46.0 0 0 -95 0 0 0 0 0 -8 0 -35 -39.0 0 0 -100 0 0 0 0 0 15.0 10 0 -28 0 0 12 0 0 -11.0 -8 0 -24 0 0 10 0
0 86.5082 0 0 14 -6 0 6 0 0 2 0 0 -3 0 0 1.989 4 0 -8 0 35 -45.9671 0 0 -95 0 0 0 0 0 -8 0 -35 -39.0329 0 0 -100 0 0 0 0 0 15.0164 10 0 -28 0 0 12 0 0 -11.0164 -8 0 -24 0 0 10 0
0 86.5328 0 0 14 -6 0 6 0 0 2 0 0 -3 0 0 1.9563 4 0 -8 0 35 -45.8689 0 0 -95 0 0 0 0 0 -8 0 -35 -39.1311 0 0 -100 0 0 0 0 0 15.0656 10 0 -28 0 0 12 0 0 -11.0656 -8 0 -24 0 0 10 0
0 86.5734 0 0 14 -6 0 6 0 0 2 0 0 -3 0 0 1.9021 4 0 -8 0 35 -45.7063 0 0 -95 0 0 0 0 0 -8 0 -35 -39.2937 0 0 -100 0 0 0 0 0 15.1468 10 0 -28 0 0 12 0 0 -11.1468 -8 0 -24 0 0 10 0
0 86.6297 0 0 14 -6 0 6 0 0 2 0 0 -3 0 0 1.8271 4 0 -8 0 35 -45.4813 0 0 -95 0 0 0 0 0 -8 0 -35 -39.5187 0 0 -100 0 0 0 0 0 15.2594 10 0 -28 0 0 12 0 0 -11.2594 -8 0 -24 0 0 10 0
0 86.701 0 0 14 -6 0 6 0 0 2 0 0 -3 0 0 1.7321 4 0 -8 0 35 -45.1962 0 0 -95 0 0 0 0 0 -8 0 -35 -39.8038 0 0 -100 0 0 0 0 0 15.4019 10 0 -28 0 0 12 0 0 -11.4019 -8 0 -24 0 0 10 0
0 86.7865 0 0 14 -6 0 6 0 0 2 0 0 -3 0 0 1.618 4 0 -8 0 35 -44.8541 0 0 -95 0 0 0 0 0 -8 0 -35 -40.1459 0 0 -100 0 0 0 0 0 15.5729 10 0 -28 0 0 12 0 0 -11.5729 -8 0 -24 0 0 10 0
0 86.8853 0 0 14 -6 0 6 0 0 2 0 0 -3 0 0 1.4863 4 0 -8 0 35 -44.4589 0 0 -95 0 0 0 0 0 -8 0 -35 -40.5411 0 0 -100 0 0 0 0 0 15.7706 10 0 -28 0 0 12 0 0 -11.7706 -8 0 -24 0 0 10 0
0 86.9963 0 0 14 -6 0 6 0 0 2 0 0 -3 0 0 1.3383 4 0 -8 0 35 -44.0148 0 0 -95 0 0 0 0 0 -8 0 -35 -40.9852 0 0 -100 0 0 0 0 0 15.9926 10 0 -28 0 0 12 0 0 -11.9926 -8 0 -24 0 0 10 0
0 87.1183 0 0 14 -6 0 6 0 0 2 0 0 -3 0 0 1.1756 4 0 -8 0 35 -43.5267 0 0 -95 0 0 0 0 0 -8 0 -35 -41.4733 0 0 -100 0 0 0 0 0 16.2366 10 0 -28 0 0 12 0 0 -12.2366 -8 0 -24 0 0 10 0
0 87.25 0 0 14 -6 0 6 0 0 2 0 0 -3 0 0 1.0 4 0 -8 0 35 -43.0 0 0 -95 0 0 0 0 0 -8 0 -35 -42.0 0 0 -100 0 0 0 0 0 16.5 10 0 -28 0 0 12 0 0 -12.5 -8 0 -24 0 0 10 0
0 87.3899 0 0 14 -6 0 6 0 0 2 0 0 -3 0 0 0.8135 4 0 -8 0 35 -42.4404 0 0 -95 0 0 0 0 0 -8 0 -35 -42.5596 0 0 -100 0 0 0 0 0 16.7798 10 0 -28 0 0 12 0 0 -12.7798 -8 0 -24 0 0 10 0
0 87.5365 0 0 14 -6 0 6 0 0 2 0 0 -3 0 0 0.618 4 0 -8 0 35 -41.8541 0 0 -95 0 0 0 0 0 -8 0 -35 -43.1459 0 0 -100 0 0 0 0 0 17.0729 10 0 -28 0 0 12 0 0 -13.0729 -8 0 -24 0 0 10 0
0 87.6881 0 0 14 -6 0 6 0 0 2 0 0 -3 0 0 0.4158 4 0 -8 0 35 -41.2475 0 0 -95 0 0 0 0 0 -8 0 -35 -43.7525 0 0 -100 0 0 0 0 0 17.3763 10 0 -28 0 0 12 0 0 -13.3763 -8 0 -24 0 0 10 0
0 87.8432 0 0 14 -6 0 6 0 0 2 0 0 -3 0 0 0.2091 4 0 -8 0 35 -40.6272 0 0 -95 0 0 0 0 0 -8 0 -35 -44.3728 0 0 -100 0 0 0 0 0 17.6864 10 0 -28 0 0 12 0 0 -13.6864 -8 0 -24 0 0 10 0
