HIERARCHY
ROOT hip
{
  OFFSET 0 0 0
  CHANNELS 6 Xposition Yposition Zposition Zrotation Yrotation Xrotation
  JOINT abdomen
  {
    OFFSET 0 20.7 0
    CHANNELS 3 Zrotation Xrotation Yrotation
    JOINT chest
    {
      OFFSET 0 11.7 0
      CHANNELS 3 Zrotation Xrotation Yrotation
      JOINT neck
      {
        OFFSET 0 22.2 0
        CHANNELS 3 Zrotation Xrotation Yrotation
        JOINT head
        {
          OFFSET 0 7.1 0
          CHANNELS 3 Zrotation Xrotation Yrotation
          End Site
          {
            OFFSET 0 10 0
          }
        }
      }
      JOINT lCollar
      {
        OFFSET 4 18 0
        CHANNELS 3 Zrotation Xrotation Yrotation
        JOINT lShldr
        {
          OFFSET 9 0 0
          CHANNELS 3 Zrotation Xrotation Yrotation
          JOINT lForeArm
          {
            OFFSET 26 0 0
            CHANNELS 3 Zrotation Xrotation Yrotation
            JOINT lHand
            {
              OFFSET 24 0 0
              CHANNELS 3 Zrotation Xrotation Yrotation
              End Site
              {
                OFFSET 8 0 0
              }
            }
          }
        }
      }
      JOINT rCollar
      {
        OFFSET -4 18 0
        CHANNELS 3 Zrotation Xrotation Yrotation
        JOINT rShldr
        {
          OFFSET -9 0 0
          CHANNELS 3 Zrotation Xrotation Yrotation
          JOINT rForeArm
          {
            OFFSET -26 0 0
            CHANNELS 3 Zrotation Xrotation Yrotation
            JOINT rHand
            {
              OFFSET -24 0 0
              CHANNELS 3 Zrotation Xrotation Yrotation
              End Site
              {
                OFFSET -8 0 0
              }
            }
          }
        }
      }
    }
  }
  JOINT lThigh
  {
    OFFSET 8 -2 0
    CHANNELS 3 Zrotation Xrotation Yrotation
    JOINT lShin
    {
      OFFSET 0 -42 0
      CHANNELS 3 Zrotation Xrotation Yrotation
      JOINT lFoot
      {
        OFFSET 0 -42 0
        CHANNELS 3 Zrotation Xrotation Yrotation
        End Site
        {
          OFFSET 0 -5 14
        }
      }
    }
  }
  JOINT rThigh
  {
    OFFSET -8 -2 0
    CHANNELS 3 Zrotation Xrotation Yrotation
    JOINT rShin
    {
      OFFSET 0 -42 0
      CHANNELS 3 Zrotation Xrotation Yrotation
      JOINT rFoot
      {
        OFFSET 0 -42 0
        CHANNELS 3 Zrotation Xrotation Yrotation
        End Site
        {
          OFFSET 0 -5 14
        }
      }
    }
  }
}
MOTION
Frames: 36
Frame Time: 0.033333
0 72.0 0 0 0 -10.0 0 10.0 0 0 -0.0 0 0 0.0 0 0 0 0 0 0 0 0 -0.0 0 0 -15 0 0 0 0 0 0 0 0 -0.0 0 0 -15 0 0 0 0 0 40.0 0 0 -50.0 0 0 0.0 0 0 40.0 0 0 -50.0 0 0 0.0 0
0 84.9214 0 0 0 -9.1284 0 9.1284 0 0 -0.4358 0 0 0.3486 0 0 0 0 0 0 0 0 -10.4587 0 0 -15 0 0 0 0 0 0 0 0 -10.4587 0 0 -15 0 0 0 0 0 41.7431 0 0 -50.8716 0 0 1.7431 0 0 41.7431 0 0 -50.8716 0 0 1.7431 0
0 97.4442 0 0 0 -8.2635 0 8.2635 0 0 -0.8682 0 0 0.6946 0 0 0 0 0 0 0 0 -20.8378 0 0 -15 0 0 0 0 0 0 0 0 -20.8378 0 0 -15 0 0 0 0 0 43.473 0 0 -51.7365 0 0 3.473 0 0 43.473 0 0 -51.7365 0 0 3.473 0
0 109.4831 0 0 0 -7.4118 0 7.4118 0 0 -1.2941 0 0 1.0353 0 0 0 0 0 0 0 0 -31.0583 0 0 -15 0 0 0 0 0 0 0 0 -31.0583 0 0 -15 0 0 0 0 0 45.1764 0 0 -52.5882 0 0 5.1764 0 0 45.1764 0 0 -52.5882 0 0 5.1764 0
0 120.9635 0 0 0 -6.5798 0 6.5798 0 0 -1.7101 0 0 1.3681 0 0 0 0 0 0 0 0 -41.0424 0 0 -15 0 0 0 0 0 0 0 0 -41.0424 0 0 -15 0 0 0 0 0 46.8404 0 0 -53.4202 0 0 6.8404 0 0 46.8404 0 0 -53.4202 0 0 6.8404 0
0 131.8206 0 0 0 -5.7738 0 5.7738 0 0 -2.1131 0 0 1.6905 0 0 0 0 0 0 0 0 -50.7142 0 0 -15 0 0 0 0 0 0 0 0 -50.7142 0 0 -15 0 0 0 0 0 48.4524 0 0 -54.2262 0 0 8.4524 0 0 48.4524 0 0 -54.2262 0 0 8.4524 0
0 142.0 0 0 0 -5.0 0 5.0 0 0 -2.5 0 0 2.0 0 0 0 0 0 0 0 0 -60.0 0 0 -15 0 0 0 0 0 0 0 0 -60.0 0 0 -15 0 0 0 0 0 50.0 0 0 -55.0 0 0 10.0 0 0 50.0 0 0 -55.0 0 0 10.0 0
0 151.4567 0 0 0 -4.2642 0 4.2642 0 0 -2.8679 0 0 2.2943 0 0 0 0 0 0 0 0 -68.8292 0 0 -15 0 0 0 0 0 0 0 0 -68.8292 0 0 -15 0 0 0 0 0 51.4715 0 0 -55.7358 0 0 11.4715 0 0 51.4715 0 0 -55.7358 0 0 11.4715 0
0 160.1546 0 0 0 -3.5721 0 3.5721 0 0 -3.2139 0 0 2.5712 0 0 0 0 0 0 0 0 -77.1345 0 0 -15 0 0 0 0 0 0 0 0 -77.1345 0 0 -15 0 0 0 0 0 52.8558 0 0 -56.4279 0 0 12.8558 0 0 52.8558 0 0 -56.4279 0 0 12.8558 0
0 168.066 0 0 0 -2.9289 0 2.9289 0 0 -3.5355 0 0 2.8284 0 0 0 0 0 0 0 0 -84.8528 0 0 -15 0 0 0 0 0 0 0 0 -84.8528 0 0 -15 0 0 0 0 0 54.1421 0 0 -57.0711 0 0 14.1421 0 0 54.1421 0 0 -57.0711 0 0 14.1421 0
0 175.1702 0 0 0 -2.3396 0 2.3396 0 0 -3.8302 0 0 3.0642 0 0 0 0 0 0 0 0 -91.9253 0 0 -15 0 0 0 0 0 0 0 0 -91.9253 0 0 -15 0 0 0 0 0 55.3209 0 0 -57.6604 0 0 15.3209 0 0 55.3209 0 0 -57.6604 0 0 15.3209 0
0 181.4526 0 0 0 -1.8085 0 1.8085 0 0 -4.0958 0 0 3.2766 0 0 0 0 0 0 0 0 -98.2982 0 0 -15 0 0 0 0 0 0 0 0 -98.2982 0 0 -15 0 0 0 0 0 56.383 0 0 -58.1915 0 0 16.383 0 0 56.383 0 0 -58.1915 0 0 16.383 0
0 186.9038 0 0 0 -1.3397 0 1.3397 0 0 -4.3301 0 0 3.4641 0 0 0 0 0 0 0 0 -103.923 0 0 -15 0 0 0 0 0 0 0 0 -103.923 0 0 -15 0 0 0 0 0 57.3205 0 0 -58.6603 0 0 17.3205 0 0 57.3205 0 0 -58.6603 0 0 17.3205 0
0 191.5183 0 0 0 -0.9369 0 0.9369 0 0 -4.5315 0 0 3.6252 0 0 0 0 0 0 0 0 -108.7569 0 0 -15 0 0 0 0 0 0 0 0 -108.7569 0 0 -15 0 0 0 0 0 58.1262 0 0 -59.0631 0 0 18.1262 0 0 58.1262 0 0 -59.0631 0 0 18.1262 0
0 195.2934 0 0 0 -0.6031 0 0.6031 0 0 -4.6985 0 0 3.7588 0 0 0 0 0 0 0 0 -112.7631 0 0 -15 0 0 0 0 0 0 0 0 -112.7631 0 0 -15 0 0 0 0 0 58.7939 0 0 -59.3969 0 0 18.7939 0 0 58.7939 0 0 -59.3969 0 0 18.7939 0
0 198.2286 0 0 0 -0.3407 0 0.3407 0 0 -4.8296 0 0 3.8637 0 0 0 0 0 0 0 0 -115.9111 0 0 -15 0 0 0 0 0 0 0 0 -115.9111 0 0 -15 0 0 0 0 0 59.3185 0 0 -59.6593 0 0 19.3185 0 0 59.3185 0 0 -59.6593 0 0 19.3185 0
0 200.3242 0 0 0 -0.1519 0 0.1519 0 0 -4.924 0 0 3.9392 0 0 0 0 0 0 0 0 -118.1769 0 0 -15 0 0 0 0 0 0 0 0 -118.1769 0 0 -15 0 0 0 0 0 59.6962 0 0 -59.8481 0 0 19.6962 0 0 59.6962 0 0 -59.8481 0 0 19.6962 0
0 201.5811 0 0 0 -0.0381 0 0.0381 0 0 -4.981 0 0 3.9848 0 0 0 0 0 0 0 0 -119.5434 0 0 -15 0 0 0 0 0 0 0 0 -119.5434 0 0 -15 0 0 0 0 0 59.9239 0 0 -59.9619 0 0 19.9239 0 0 59.9239 0 0 -59.9619 0 0 19.9239 0
0 202.0 0 0 0 -0.0 0 0.0 0 0 -5.0 0 0 4.0 0 0 0 0 0 0 0 0 -120.0 0 0 -15 0 0 0 0 0 0 0 0 -120.0 0 0 -15 0 0 0 0 0 60.0 0 0 -60.0 0 0 20.0 0 0 60.0 0 0 -60.0 0 0 20.0 0
0 201.5811 0 0 0 -0.0381 0 0.0381 0 0 -4.981 0 0 3.9848 0 0 0 0 0 0 0 0 -119.5434 0 0 -15 0 0 0 0 0 0 0 0 -119.5434 0 0 -15 0 0 0 0 0 59.9239 0 0 -59.9619 0 0 19.9239 0 0 59.9239 0 0 -59.9619 0 0 19.9239 0
0 200.3242 0 0 0 -0.1519 0 0.1519 0 0 -4.924 0 0 3.9392 0 0 0 0 0 0 0 0 -118.1769 0 0 -15 0 0 0 0 0 0 0 0 -118.1769 0 0 -15 0 0 0 0 0 59.6962 0 0 -59.8481 0 0 19.6962 0 0 59.6962 0 0 -59.8481 0 0 19.6962 0
0 198.2286 0 0 0 -0.3407 0 0.3407 0 0 -4.8296 0 0 3.8637 0 0 0 0 0 0 0 0 -115.9111 0 0 -15 0 0 0 0 0 0 0 0 -115.9111 0 0 -15 0 0 0 0 0 59.3185 0 0 -59.6593 0 0 19.3185 0 0 59.3185 0 0 -59.6593 0 0 19.3185 0
0 195.2934 0 0 0 -0.6031 0 0.6031 0 0 -4.6985 0 0 3.7588 0 0 0 0 0 0 0 0 -112.7631 0 0 -15 0 0 0 0 0 0 0 0 -112.7631 0 0 -15 0 0 0 0 0 58.7939 0 0 -59.3969 0 0 18.7939 0 0 58.7939 0 0 -59.3969 0 0 18.7939 0
0 191.5183 0 0 0 -0.9369 0 0.9369 0 0 -4.5315 0 0 3.6252 0 0 0 0 0 0 0 0 -108.7569 0 0 -15 0 0 0 0 0 0 0 0 -108.7569 0 0 -15 0 0 0 0 0 58.1262 0 0 -59.0631 0 0 18.1262 0 0 58.1262 0 0 -59.0631 0 0 18.1262 0
0 186.9038 0 0 0 -1.3397 0 1.3397 0 0 -4.3301 0 0 3.4641 0 0 0 0 0 0 0 0 -103.923 0 0 -15 0 0 0 0 0 0 0 0 -103.923 0 0 -15 0 0 0 0 0 57.3205 0 0 -58.6603 0 0 17.3205 0 0 57.3205 0 0 -58.6603 0 0 17.3205 0
0 181.4526 0 0 0 -1.8085 0 1.8085 0 0 -4.0958 0 0 3.2766 0 0 0 0 0 0 0 0 -98.2982 0 0 -15 0 0 0 0 0 0 0 0 -98.2982 0 0 -15 0 0 0 0 0 56.383 0 0 -58.1915 0 0 16.383 0 0 56.383 0 0 -58.1915 0 0 16.383 0
0 175.1702 0 0 0 -2.3396 0 2.3396 0 0 -3.8302 0 0 3.0642 0 0 0 0 0 0 0 0 -91.9253 0 0 -15 0 0 0 0 0 0 0 0 -91.9253 0 0 -15 0 0 0 0 0 55.3209 0 0 -57.6604 0 0 15.3209 0 0 55.3209 0 0 -57.6604 0 0 15.3209 0
0 168.066 0 0 0 -2.9289 0 2.9289 0 0 -3.5355 0 0 2.8284 0 0 0 0 0 0 0 0 -84.8528 0 0 -15 0 0 0 0 0 0 0 0 -84.8528 0 0 -15 0 0 0 0 0 54.1421 0 0 -57.0711 0 0 14.1421 0 0 54.1421 0 0 -57.0711 0 0 14.1421 0
0 160.1546 0 0 0 -3.5721 0 3.5721 0 0 -3.2139 0 0 2.5712 0 0 0 0 0 0 0 0 -77.1345 0 0 -15 0 0 0 0 0 0 0 0 -77.1345 0 0 -15 0 0 0 0 0 52.8558 0 0 -56.4279 0 0 12.8558 0 0 52.8558 0 0 -56.4279 0 0 12.8558 0
0 151.4567 0 0 0 -4.2642 0 4.2642 0 0 -2.8679 0 0 2.2943 0 0 0 0 0 0 0 0 -68.8292 0 0 -15 0 0 0 0 0 0 0 0 -68.8292 0 0 -15 0 0 0 0 0 51.4715 0 0 -55.7358 0 0 11.4715 0 0 51.4715 0 0 -55.7358 0 0 11.4715 0
0 142.0 0 0 0 -5.0 0 5.0 0 0 -2.5 0 0 2.0 0 0 0 0 0 0 0 0 -60.0 0 0 -15 0 0 0 0 0 0 0 0 -60.0 0 0 -15 0 0 0 0 0 50.0 0 0 -55.0 0 0 10.0 0 0 50.0 0 0 -55.0 0 0 10.0 0
0 131.8206 0 0 0 -5.7738 0 5.7738 0 0 -2.1131 0 0 1.6905 0 0 0 0 0 0 0 0 -50.7142 0 0 -15 0 0 0 0 0 0 0 0 -50.7142 0 0 -15 0 0 0 0 0 48.4524 0 0 -54.2262 0 0 8.4524 0 0 48.4524 0 0 -54.2262 0 0 8.4524 0
0 120.9635 0 0 0 -6.5798 0 6.5798 0 0 -1.7101 0 0 1.3681 0 0 0 0 0 0 0 0 -41.0424 0 0 -15 0 0 0 0 0 0 0 0 -41.0424 0 0 -15 0 0 0 0 0 46.8404 0 0 -53.4202 0 0 6.8404 0 0 46.8404 0 0 -53.4202 0 0 6.8404 0
0 109.4831 0 0 0 -7.4118 0 7.4118 0 0 -1.2941 0 0 1.0353 0 0 0 0 0 0 0 0 -31.0583 0 0 -15 0 0 0 0 0 0 0 0 -31.0583 0 0 -15 0 0 0 0 0 45.1764 0 0 -52.5882 0 0 5.1764 0 0 45.1764 0 0 -52.5882 0 0 5.1764 0
0 97.4442 0 0 0 -8.2635 0 8.2635 0 0 -0.8682 0 0 0.6946 0 0 0 0 0 0 0 0 -20.8378 0 0 -15 0 0 0 0 0 0 0 0 -20.8378 0 0 -15 0 0 0 0 0 43.473 0 0 -51.7365 0 0 3.473 0 0 43.473 0 0 -51.7365 0 0 3.473 0
0 84.9214 0 0 0 -9.1284 0 9.1284 0 0 -0.4358 0 0 0.3486 0 0 0 0 0 0 0 0 -10.4587 0 0 -15 0 0 0 0 0 0 0 0 -10.4587 0 0 -15 0 0 0 0 0 41.7431 0 0 -50.8716 0 0 1.7431 0 0 41.7431 0 0 -50.8716 0 0 1.7431 0
