HIERARCHY
ROOT hip
{
  OFFSET 0 0 0
  CHANNELS 6 Xposition Yposition Zposition Zrotation Yrotation Xrotation
  JOINT abdomen
  {
    OFFSET 0 20.7 0
    CHANNELS 3 Zrotation Xrotation Yrotation
    JOINT chest
    {
      OFFSET 0 11.7 0
      CHANNELS 3 Zrotation Xrotation Yrotation
      JOINT neck
      {
        OFFSET 0 22.2 0
        CHANNELS 3 Zrotation Xrotation Yrotation
        JOINT head
        {
          OFFSET 0 7.1 0
          CHANNELS 3 Zrotation Xrotation Yrotation
          End Site
          {
            OFFSET 0 10 0
          }
        }
      }
      JOINT lCollar
      {
        OFFSET 4 18 0
        CHANNELS 3 Zrotation Xrotation Yrotation
        JOINT lShldr
        {
          OFFSET 9 0 0
          CHANNELS 3 Zrotation Xrotation Yrotation
          JOINT lForeArm
          {
            OFFSET 26 0 0
            CHANNELS 3 Zrotation Xrotation Yrotation
            JOINT lHand
            {
              OFFSET 24 0 0
              CHANNELS 3 Zrotation Xrotation Yrotation
              End Site
              {
                OFFSET 8 0 0
              }
            }
          }
        }
      }
      JOINT rCollar
      {
        OFFSET -4 18 0
        CHANNELS 3 Zrotation Xrotation Yrotation
        JOINT rShldr
        {
          OFFSET -9 0 0
          CHANNELS 3 Zrotation Xrotation Yrotation
          JOINT rForeArm
          {
            OFFSET -26 0 0
            CHANNELS 3 Zrotation Xrotation Yrotation
            JOINT rHand
            {
              OFFSET -24 0 0
              CHANNELS 3 Zrotation Xrotation Yrotation
              End Site
              {
                OFFSET -8 0 0
              }
            }
          }
        }
      }
    }
  }
  JOINT lThigh
  {
    OFFSET 8 -2 0
    CHANNELS 3 Zrotation Xrotation Yrotation
    JOINT lShin
    {
      OFFSET 0 -42 0
      CHANNELS 3 Zrotation Xrotation Yrotation
      JOINT lFoot
      {
        OFFSET 0 -42 0
        CHANNELS 3 Zrotation Xrotation Yrotation
        End Site
        {
          OFFSET 0 -5 14
        }
      }
    }
  }
  JOINT rThigh
  {
    OFFSET -8 -2 0
    CHANNELS 3 Zrotation Xrotation Yrotation
    JOINT rShin
    {
      OFFSET 0 -42 0
      CHANNELS 3 Zrotation Xrotation Yrotation
      JOINT rFoot
      {
        OFFSET 0 -42 0
        CHANNELS 3 Zrotation Xrotation Yrotation
        End Site
        {
          OFFSET 0 -5 14
        }
      }
    }
  }
}
MOTION
Frames: 26
Frame Time: 0.033333
0 96.0 0 0.0 0 -8 0 8 0 0 4 0.0 0 -6 0 0 -4 0 0 0 0 0 -0.0 0 0 -75 0 0 0 0 0 0 0 0 0.0 0 0 -75 0 0 0 0 0 0.0 0 0 -10 0 0 18.0 0 0 -0.0 0 0 -64.8329 0 0 -18.0 0
0 98.3236 0 0.7179 0 -8 0 8 0 0 4 0.7179 0 -6 0 0 -4 0 0 0 0 0 -10.7692 0 0 -75 0 0 0 0 0 0 0 0 10.7692 0 0 -75 0 0 0 0 0 13.1624 0 0 -10 0 0 17.477 0 0 -13.1624 0 0 -52.8263 0 0 -17.477 0
0 100.1149 0 1.3942 0 -8 0 8 0 0 4 1.3942 0 -6 0 0 -4 0 0 0 0 0 -20.9125 0 0 -75 0 0 0 0 0 0 0 0 20.9125 0 0 -75 0 0 0 0 0 25.5598 0 0 -10 0 0 15.9382 0 0 -25.5598 0 0 -38.3307 0 0 -15.9382 0
0 100.9635 0 1.9894 0 -8 0 8 0 0 4 1.9894 0 -6 0 0 -4 0 0 0 0 0 -29.8405 0 0 -75 0 0 0 0 0 0 0 0 29.8405 0 0 -75 0 0 0 0 0 36.4717 0 0 -10 0 0 13.4732 0 0 -36.4717 0 0 -22.1887 0 0 -13.4732 0
0 100.6751 0 2.469 0 -8 0 8 0 0 4 2.469 0 -6 0 0 -4 0 0 0 0 0 -37.0343 0 0 -75 0 0 0 0 0 0 0 0 37.0343 0 0 -75 0 0 0 0 0 45.2641 0 0 -14.6616 0 0 10.2252 0 0 -45.2641 0 0 -10 0 0 -10.2252 0
0 99.3156 0 2.805 0 -8 0 8 0 0 4 2.805 0 -6 0 0 -4 0 0 0 0 0 -42.0757 0 0 -75 0 0 0 0 0 0 0 0 42.0757 0 0 -75 0 0 0 0 0 51.4259 0 0 -31.2411 0 0 6.3829 0 0 -51.4259 0 0 -10 0 0 -6.3829 0
0 97.1966 0 2.9781 0 -8 0 8 0 0 4 2.9781 0 -6 0 0 -4 0 0 0 0 0 -44.6719 0 0 -75 0 0 0 0 0 0 0 0 44.6719 0 0 -75 0 0 0 0 0 54.599 0 0 -46.5861 0 0 2.1697 0 0 -54.599 0 0 -10 0 0 -2.1697 0
0 94.8034 0 2.9781 0 -8 0 8 0 0 4 2.9781 0 -6 0 0 -4 0 0 0 0 0 -44.6719 0 0 -75 0 0 0 0 0 0 0 0 44.6719 0 0 -75 0 0 0 0 0 54.599 0 0 -59.8048 0 0 -2.1697 0 0 -54.599 0 0 -10 0 0 2.1697 0
0 92.6844 0 2.805 0 -8 0 8 0 0 4 2.805 0 -6 0 0 -4 0 0 0 0 0 -42.0757 0 0 -75 0 0 0 0 0 0 0 0 42.0757 0 0 -75 0 0 0 0 0 51.4259 0 0 -70.1291 0 0 -6.3829 0 0 -51.4259 0 0 -10 0 0 6.3829 0
0 91.3249 0 2.469 0 -8 0 8 0 0 4 2.469 0 -6 0 0 -4 0 0 0 0 0 -37.0343 0 0 -75 0 0 0 0 0 0 0 0 37.0343 0 0 -75 0 0 0 0 0 45.2641 0 0 -76.9589 0 0 -10.2252 0 0 -45.2641 0 0 -10 0 0 10.2252 0
0 91.0365 0 1.9894 0 -8 0 8 0 0 4 1.9894 0 -6 0 0 -4 0 0 0 0 0 -29.8405 0 0 -75 0 0 0 0 0 0 0 0 29.8405 0 0 -75 0 0 0 0 0 36.4717 0 0 -79.8973 0 0 -13.4732 0 0 -36.4717 0 0 -10 0 0 13.4732 0
0 91.8851 0 1.3942 0 -8 0 8 0 0 4 1.3942 0 -6 0 0 -4 0 0 0 0 0 -20.9125 0 0 -75 0 0 0 0 0 0 0 0 20.9125 0 0 -75 0 0 0 0 0 25.5598 0 0 -78.7735 0 0 -15.9382 0 0 -25.5598 0 0 -10 0 0 15.9382 0
0 93.6764 0 0.7179 0 -8 0 8 0 0 4 0.7179 0 -6 0 0 -4 0 0 0 0 0 -10.7692 0 0 -75 0 0 0 0 0 0 0 0 10.7692 0 0 -75 0 0 0 0 0 13.1624 0 0 -73.6528 0 0 -17.477 0 0 -13.1624 0 0 -10 0 0 17.477 0
0 96.0 0 0.0 0 -8 0 8 0 0 4 0.0 0 -6 0 0 -4 0 0 0 0 0 -0.0 0 0 -75 0 0 0 0 0 0 0 0 0.0 0 0 -75 0 0 0 0 0 0.0 0 0 -64.8329 0 0 -18.0 0 0 -0.0 0 0 -10 0 0 18.0 0
0 98.3236 0 -0.7179 0 -8 0 8 0 0 4 -0.7179 0 -6 0 0 -4 0 0 0 0 0 10.7692 0 0 -75 0 0 0 0 0 0 0 0 -10.7692 0 0 -75 0 0 0 0 0 -13.1624 0 0 -52.8263 0 0 -17.477 0 0 13.1624 0 0 -10 0 0 17.477 0
0 100.1149 0 -1.3942 0 -8 0 8 0 0 4 -1.3942 0 -6 0 0 -4 0 0 0 0 0 20.9125 0 0 -75 0 0 0 0 0 0 0 0 -20.9125 0 0 -75 0 0 0 0 0 -25.5598 0 0 -38.3307 0 0 -15.9382 0 0 25.5598 0 0 -10 0 0 15.9382 0
0 100.9635 0 -1.9894 0 -8 0 8 0 0 4 -1.9894 0 -6 0 0 -4 0 0 0 0 0 29.8405 0 0 -75 0 0 0 0 0 0 0 0 -29.8405 0 0 -75 0 0 0 0 0 -36.4717 0 0 -22.1887 0 0 -13.4732 0 0 36.4717 0 0 -10 0 0 13.4732 0
0 100.6751 0 -2.469 0 -8 0 8 0 0 4 -2.469 0 -6 0 0 -4 0 0 0 0 0 37.0343 0 0 -75 0 0 0 0 0 0 0 0 -37.0343 0 0 -75 0 0 0 0 0 -45.2641 0 0 -10 0 0 -10.2252 0 0 45.2641 0 0 -14.6616 0 0 10.2252 0
0 99.3156 0 -2.805 0 -8 0 8 0 0 4 -2.805 0 -6 0 0 -4 0 0 0 0 0 42.0757 0 0 -75 0 0 0 0 0 0 0 0 -42.0757 0 0 -75 0 0 0 0 0 -51.4259 0 0 -10 0 0 -6.3829 0 0 51.4259 0 0 -31.2411 0 0 6.3829 0
0 97.1966 0 -2.9781 0 -8 0 8 0 0 4 -2.9781 0 -6 0 0 -4 0 0 0 0 0 44.6719 0 0 -75 0 0 0 0 0 0 0 0 -44.6719 0 0 -75 0 0 0 0 0 -54.599 0 0 -10 0 0 -2.1697 0 0 54.599 0 0 -46.5861 0 0 2.1697 0
0 94.8034 0 -2.9781 0 -8 0 8 0 0 4 -2.9781 0 -6 0 0 -4 0 0 0 0 0 44.6719 0 0 -75 0 0 0 0 0 0 0 0 -44.6719 0 0 -75 0 0 0 0 0 -54.599 0 0 -10 0 0 2.1697 0 0 54.599 0 0 -59.8048 0 0 -2.1697 0
0 92.6844 0 -2.805 0 -8 0 8 0 0 4 -2.805 0 -6 0 0 -4 0 0 0 0 0 42.0757 0 0 -75 0 0 0 0 0 0 0 0 -42.0757 0 0 -75 0 0 0 0 0 -51.4259 0 0 -10 0 0 6.3829 0 0 51.4259 0 0 -70.1291 0 0 -6.3829 0
0 91.3249 0 -2.469 0 -8 0 8 0 0 4 -2.469 0 -6 0 0 -4 0 0 0 0 0 37.0343 0 0 -75 0 0 0 0 0 0 0 0 -37.0343 0 0 -75 0 0 0 0 0 -45.2641 0 0 -10 0 0 10.2252 0 0 45.2641 0 0 -76.9589 0 0 -10.2252 0
0 91.0365 0 -1.9894 0 -8 0 8 0 0 4 -1.9894 0 -6 0 0 -4 0 0 0 0 0 29.8405 0 0 -75 0 0 0 0 0 0 0 0 -29.8405 0 0 -75 0 0 0 0 0 -36.4717 0 0 -10 0 0 13.4732 0 0 36.4717 0 0 -79.8973 0 0 -13.4732 0
0 91.8851 0 -1.3942 0 -8 0 8 0 0 4 -1.3942 0 -6 0 0 -4 0 0 0 0 0 20.9125 0 0 -75 0 0 0 0 0 0 0 0 -20.9125 0 0 -75 0 0 0 0 0 -25.5598 0 0 -10 0 0 15.9382 0 0 25.5598 0 0 -78.7735 0 0 -15.9382 0
0 93.6764 0 -0.7179 0 -8 0 8 0 0 4 -0.7179 0 -6 0 0 -4 0 0 0 0 0 10.7692 0 0 -75 0 0 0 0 0 0 0 0 -10.7692 0 0 -75 0 0 0 0 0 -13.1624 0 0 -10 0 0 17.477 0 0 13.1624 0 0 -73.6528 0 0 -17.477 0
