HIERARCHY
ROOT hip
{
  OFFSET 0 0 0
  CHANNELS 6 Xposition Yposition Zposition Zrotation Yrotation Xrotation
  JOINT abdomen
  {
    OFFSET 0 20.7 0
    CHANNELS 3 Zrotation Xrotation Yrotation
    JOINT chest
    {
      OFFSET 0 11.7 0
      CHANNELS 3 Zrotation Xrotation Yrotation
      JOINT neck
      {
        OFFSET 0 22.2 0
        CHANNELS 3 Zrotation Xrotation Yrotation
        JOINT head
        {
          OFFSET 0 7.1 0
          CHANNELS 3 Zrotation Xrotation Yrotation
          End Site
          {
            OFFSET 0 10 0
          }
        }
      }
      JOINT lCollar
      {
        OFFSET 4 18 0
        CHANNELS 3 Zrotation Xrotation Yrotation
        JOINT lShldr
        {
          OFFSET 9 0 0
          CHANNELS 3 Zrotation Xrotation Yrotation
          JOINT lForeArm
          {
            OFFSET 26 0 0
            CHANNELS 3 Zrotation Xrotation Yrotation
            JOINT lHand
            {
              OFFSET 24 0 0
              CHANNELS 3 Zrotation Xrotation Yrotation
              End Site
              {
                OFFSET 8 0 0
              }
            }
          }
        }
      }
      JOINT rCollar
      {
        OFFSET -4 18 0
        CHANNELS 3 Zrotation Xrotation Yrotation
        JOINT rShldr
        {
          OFFSET -9 0 0
          CHANNELS 3 Zrotation Xrotation Yrotation
          JOINT rForeArm
          {
            OFFSET -26 0 0
            CHANNELS 3 Zrotation Xrotation Yrotation
            JOINT rHand
            {
              OFFSET -24 0 0
              CHANNELS 3 Zrotation Xrotation Yrotation
              End Site
              {
                OFFSET -8 0 0
              }
            }
          }
        }
      }
    }
  }
  JOINT lThigh
  {
    OFFSET 8 -2 0
    CHANNELS 3 Zrotation Xrotation Yrotation
    JOINT lShin
    {
      OFFSET 0 -42 0
      CHANNELS 3 Zrotation Xrotation Yrotation
      JOINT lFoot
      {
        OFFSET 0 -42 0
        CHANNELS 3 Zrotation Xrotation Yrotation
        End Site
        {
          OFFSET 0 -5 14
        }
      }
    }
  }
  JOINT rThigh
  {
    OFFSET -8 -2 0
    CHANNELS 3 Zrotation Xrotation Yrotation
    JOINT rShin
    {
      OFFSET 0 -42 0
      CHANNELS 3 Zrotation Xrotation Yrotation
      JOINT rFoot
      {
        OFFSET 0 -42 0
        CHANNELS 3 Zrotation Xrotation Yrotation
        End Site
        {
          OFFSET 0 -5 14
        }
      }
    }
  }
}
MOTION
Frames: 40
Frame Time: 0.033333
0 92.0 0 0.0 0 0 0 0.0 0 0 -2 0.0 0 2 0 0 0 0 0 0 0 0 -0.0 0 0 -20.0 0 0 0 0 0 0 0 0 0.0 0 0 -20.0 0 0 0 0 0 0.0 0 0 19.7625 0 0 10.0 0 0 -0.0 0 0 0 0 0 -10.0 0
0 92.618 0 0.3129 0 0 0 0.9271 0 0 -2 0.3129 0 2 0 0 0 0 0 0 0 0 -3.9109 0 0 -21.2515 0 0 0 0 0 0 0 0 3.9109 0 0 -18.7485 0 0 0 0 0 4.3802 0 0 15.0003 0 0 9.8769 0 0 -4.3802 0 0 0 0 0 -9.8769 0
0 93.1756 0 0.618 0 0 0 1.7634 0 0 -2 0.618 0 2 0 0 0 0 0 0 0 0 -7.7254 0 0 -22.4721 0 0 0 0 0 0 0 0 7.7254 0 0 -17.5279 0 0 0 0 0 8.6525 0 0 9.8687 0 0 9.5106 0 0 -8.6525 0 0 0 0 0 -9.5106 0
0 93.618 0 0.908 0 0 0 2.4271 0 0 -2 0.908 0 2 0 0 0 0 0 0 0 0 -11.3498 0 0 -23.6319 0 0 0 0 0 0 0 0 11.3498 0 0 -16.3681 0 0 0 0 0 12.7117 0 0 4.4942 0 0 8.9101 0 0 -12.7117 0 0 0 0 0 -8.9101 0
0 93.9021 0 1.1756 0 0 0 2.8532 0 0 -2 1.1756 0 2 0 0 0 0 0 0 0 0 -14.6946 0 0 -24.7023 0 0 0 0 0 0 0 0 14.6946 0 0 -15.2977 0 0 0 0 0 16.458 0 0 0 0 0 8.0902 0 0 -16.458 0 0 0.991 0 0 -8.0902 0
0 94.0 0 1.4142 0 0 0 3.0 0 0 -2 1.4142 0 2 0 0 0 0 0 0 0 0 -17.6777 0 0 -25.6569 0 0 0 0 0 0 0 0 17.6777 0 0 -14.3431 0 0 0 0 0 19.799 0 0 0 0 0 7.0711 0 0 -19.799 0 0 6.4518 0 0 -7.0711 0
0 93.9021 0 1.618 0 0 0 2.8532 0 0 -2 1.618 0 2 0 0 0 0 0 0 0 0 -20.2254 0 0 -26.4721 0 0 0 0 0 0 0 0 20.2254 0 0 -13.5279 0 0 0 0 0 22.6525 0 0 0 0 0 5.8779 0 0 -22.6525 0 0 11.7538 0 0 -5.8779 0
0 93.618 0 1.782 0 0 0 2.4271 0 0 -2 1.782 0 2 0 0 0 0 0 0 0 0 -22.2752 0 0 -27.1281 0 0 0 0 0 0 0 0 22.2752 0 0 -12.8719 0 0 0 0 0 24.9482 0 0 0 0 0 4.5399 0 0 -24.9482 0 0 16.7663 0 0 -4.5399 0
0 93.1756 0 1.9021 0 0 0 1.7634 0 0 -2 1.9021 0 2 0 0 0 0 0 0 0 0 -23.7764 0 0 -27.6085 0 0 0 0 0 0 0 0 23.7764 0 0 -12.3915 0 0 0 0 0 26.6296 0 0 0 0 0 3.0902 0 0 -26.6296 0 0 21.366 0 0 -3.0902 0
0 92.618 0 1.9754 0 0 0 0.9271 0 0 -2 1.9754 0 2 0 0 0 0 0 0 0 0 -24.6922 0 0 -27.9015 0 0 0 0 0 0 0 0 24.6922 0 0 -12.0985 0 0 0 0 0 27.6553 0 0 0 0 0 1.5643 0 0 -27.6553 0 0 25.4396 0 0 -1.5643 0
0 92.0 0 2.0 0 0 0 0.0 0 0 -2 2.0 0 2 0 0 0 0 0 0 0 0 -25.0 0 0 -28.0 0 0 0 0 0 0 0 0 25.0 0 0 -12.0 0 0 0 0 0 28.0 0 0 0 0 0 0.0 0 0 -28.0 0 0 28.8867 0 0 -0.0 0
0 91.382 0 1.9754 0 0 0 -0.9271 0 0 -2 1.9754 0 2 0 0 0 0 0 0 0 0 -24.6922 0 0 -27.9015 0 0 0 0 0 0 0 0 24.6922 0 0 -12.0985 0 0 0 0 0 27.6553 0 0 0 0 0 -1.5643 0 0 -27.6553 0 0 31.6226 0 0 1.5643 0
0 90.8244 0 1.9021 0 0 0 -1.7634 0 0 -2 1.9021 0 2 0 0 0 0 0 0 0 0 -23.7764 0 0 -27.6085 0 0 0 0 0 0 0 0 23.7764 0 0 -12.3915 0 0 0 0 0 26.6296 0 0 0 0 0 -3.0902 0 0 -26.6296 0 0 33.5799 0 0 3.0902 0
0 90.382 0 1.782 0 0 0 -2.4271 0 0 -2 1.782 0 2 0 0 0 0 0 0 0 0 -22.2752 0 0 -27.1281 0 0 0 0 0 0 0 0 22.2752 0 0 -12.8719 0 0 0 0 0 24.9482 0 0 0 0 0 -4.5399 0 0 -24.9482 0 0 34.7103 0 0 4.5399 0
0 90.0979 0 1.618 0 0 0 -2.8532 0 0 -2 1.618 0 2 0 0 0 0 0 0 0 0 -20.2254 0 0 -26.4721 0 0 0 0 0 0 0 0 20.2254 0 0 -13.5279 0 0 0 0 0 22.6525 0 0 0 0 0 -5.8779 0 0 -22.6525 0 0 34.986 0 0 5.8779 0
0 90.0 0 1.4142 0 0 0 -3.0 0 0 -2 1.4142 0 2 0 0 0 0 0 0 0 0 -17.6777 0 0 -25.6569 0 0 0 0 0 0 0 0 17.6777 0 0 -14.3431 0 0 0 0 0 19.799 0 0 0 0 0 -7.0711 0 0 -19.799 0 0 34.4002 0 0 7.0711 0
0 90.0979 0 1.1756 0 0 0 -2.8532 0 0 -2 1.1756 0 2 0 0 0 0 0 0 0 0 -14.6946 0 0 -24.7023 0 0 0 0 0 0 0 0 14.6946 0 0 -15.2977 0 0 0 0 0 16.458 0 0 0 0 0 -8.0902 0 0 -16.458 0 0 32.9674 0 0 8.0902 0
0 90.382 0 0.908 0 0 0 -2.4271 0 0 -2 0.908 0 2 0 0 0 0 0 0 0 0 -11.3498 0 0 -23.6319 0 0 0 0 0 0 0 0 11.3498 0 0 -16.3681 0 0 0 0 0 12.7117 0 0 0 0 0 -8.9101 0 0 -12.7117 0 0 30.7228 0 0 8.9101 0
0 90.8244 0 0.618 0 0 0 -1.7634 0 0 -2 0.618 0 2 0 0 0 0 0 0 0 0 -7.7254 0 0 -22.4721 0 0 0 0 0 0 0 0 7.7254 0 0 -17.5279 0 0 0 0 0 8.6525 0 0 0 0 0 -9.5106 0 0 -8.6525 0 0 27.7217 0 0 9.5106 0
0 91.382 0 0.3129 0 0 0 -0.9271 0 0 -2 0.3129 0 2 0 0 0 0 0 0 0 0 -3.9109 0 0 -21.2515 0 0 0 0 0 0 0 0 3.9109 0 0 -18.7485 0 0 0 0 0 4.3802 0 0 0 0 0 -9.8769 0 0 -4.3802 0 0 24.0381 0 0 9.8769 0
0 92.0 0 0.0 0 0 0 -0.0 0 0 -2 0.0 0 2 0 0 0 0 0 0 0 0 -0.0 0 0 -20.0 0 0 0 0 0 0 0 0 0.0 0 0 -20.0 0 0 0 0 0 0.0 0 0 0 0 0 -10.0 0 0 -0.0 0 0 19.7625 0 0 10.0 0
0 92.618 0 -0.3129 0 0 0 0.9271 0 0 -2 -0.3129 0 2 0 0 0 0 0 0 0 0 3.9109 0 0 -18.7485 0 0 0 0 0 0 0 0 -3.9109 0 0 -21.2515 0 0 0 0 0 -4.3802 0 0 0 0 0 -9.8769 0 0 4.3802 0 0 15.0003 0 0 9.8769 0
0 93.1756 0 -0.618 0 0 0 1.7634 0 0 -2 -0.618 0 2 0 0 0 0 0 0 0 0 7.7254 0 0 -17.5279 0 0 0 0 0 0 0 0 -7.7254 0 0 -22.4721 0 0 0 0 0 -8.6525 0 0 0 0 0 -9.5106 0 0 8.6525 0 0 9.8687 0 0 9.5106 0
0 93.618 0 -0.908 0 0 0 2.4271 0 0 -2 -0.908 0 2 0 0 0 0 0 0 0 0 11.3498 0 0 -16.3681 0 0 0 0 0 0 0 0 -11.3498 0 0 -23.6319 0 0 0 0 0 -12.7117 0 0 0 0 0 -8.9101 0 0 12.7117 0 0 4.4942 0 0 8.9101 0
0 93.9021 0 -1.1756 0 0 0 2.8532 0 0 -2 -1.1756 0 2 0 0 0 0 0 0 0 0 14.6946 0 0 -15.2977 0 0 0 0 0 0 0 0 -14.6946 0 0 -24.7023 0 0 0 0 0 -16.458 0 0 0.991 0 0 -8.0902 0 0 16.458 0 0 0 0 0 8.0902 0
0 94.0 0 -1.4142 0 0 0 3.0 0 0 -2 -1.4142 0 2 0 0 0 0 0 0 0 0 17.6777 0 0 -14.3431 0 0 0 0 0 0 0 0 -17.6777 0 0 -25.6569 0 0 0 0 0 -19.799 0 0 6.4518 0 0 -7.0711 0 0 19.799 0 0 0 0 0 7.0711 0
0 93.9021 0 -1.618 0 0 0 2.8532 0 0 -2 -1.618 0 2 0 0 0 0 0 0 0 0 20.2254 0 0 -13.5279 0 0 0 0 0 0 0 0 -20.2254 0 0 -26.4721 0 0 0 0 0 -22.6525 0 0 11.7538 0 0 -5.8779 0 0 22.6525 0 0 0 0 0 5.8779 0
0 93.618 0 -1.782 0 0 0 2.4271 0 0 -2 -1.782 0 2 0 0 0 0 0 0 0 0 22.2752 0 0 -12.8719 0 0 0 0 0 0 0 0 -22.2752 0 0 -27.1281 0 0 0 0 0 -24.9482 0 0 16.7663 0 0 -4.5399 0 0 24.9482 0 0 0 0 0 4.5399 0
0 93.1756 0 -1.9021 0 0 0 1.7634 0 0 -2 -1.9021 0 2 0 0 0 0 0 0 0 0 23.7764 0 0 -12.3915 0 0 0 0 0 0 0 0 -23.7764 0 0 -27.6085 0 0 0 0 0 -26.6296 0 0 21.366 0 0 -3.0902 0 0 26.6296 0 0 0 0 0 3.0902 0
0 92.618 0 -1.9754 0 0 0 0.9271 0 0 -2 -1.9754 0 2 0 0 0 0 0 0 0 0 24.6922 0 0 -12.0985 0 0 0 0 0 0 0 0 -24.6922 0 0 -27.9015 0 0 0 0 0 -27.6553 0 0 25.4396 0 0 -1.5643 0 0 27.6553 0 0 0 0 0 1.5643 0
0 92.0 0 -2.0 0 0 0 0.0 0 0 -2 -2.0 0 2 0 0 0 0 0 0 0 0 25.0 0 0 -12.0 0 0 0 0 0 0 0 0 -25.0 0 0 -28.0 0 0 0 0 0 -28.0 0 0 28.8867 0 0 -0.0 0 0 28.0 0 0 0 0 0 0.0 0
0 91.382 0 -1.9754 0 0 0 -0.9271 0 0 -2 -1.9754 0 2 0 0 0 0 0 0 0 0 24.6922 0 0 -12.0985 0 0 0 0 0 0 0 0 -24.6922 0 0 -27.9015 0 0 0 0 0 -27.6553 0 0 31.6226 0 0 1.5643 0 0 27.6553 0 0 0 0 0 -1.5643 0
0 90.8244 0 -1.9021 0 0 0 -1.7634 0 0 -2 -1.9021 0 2 0 0 0 0 0 0 0 0 23.7764 0 0 -12.3915 0 0 0 0 0 0 0 0 -23.7764 0 0 -27.6085 0 0 0 0 0 -26.6296 0 0 33.5799 0 0 3.0902 0 0 26.6296 0 0 0 0 0 -3.0902 0
0 90.382 0 -1.782 0 0 0 -2.4271 0 0 -2 -1.782 0 2 0 0 0 0 0 0 0 0 22.2752 0 0 -12.8719 0 0 0 0 0 0 0 0 -22.2752 0 0 -27.1281 0 0 0 0 0 -24.9482 0 0 34.7103 0 0 4.5399 0 0 24.9482 0 0 0 0 0 -4.5399 0
0 90.0979 0 -1.618 0 0 0 -2.8532 0 0 -2 -1.618 0 2 0 0 0 0 0 0 0 0 20.2254 0 0 -13.5279 0 0 0 0 0 0 0 0 -20.2254 0 0 -26.4721 0 0 0 0 0 -22.6525 0 0 34.986 0 0 5.8779 0 0 22.6525 0 0 0 0 0 -5.8779 0
0 90.0 0 -1.4142 0 0 0 -3.0 0 0 -2 -1.4142 0 2 0 0 0 0 0 0 0 0 17.6777 0 0 -14.3431 0 0 0 0 0 0 0 0 -17.6777 0 0 -25.6569 0 0 0 0 0 -19.799 0 0 34.4002 0 0 7.0711 0 0 19.799 0 0 0 0 0 -7.0711 0
0 90.0979 0 -1.1756 0 0 0 -2.8532 0 0 -2 -1.1756 0 2 0 0 0 0 0 0 0 0 14.6946 0 0 -15.2977 0 0 0 0 0 0 0 0 -14.6946 0 0 -24.7023 0 0 0 0 0 -16.458 0 0 32.9674 0 0 8.0902 0 0 16.458 0 0 0 0 0 -8.0902 0
0 90.382 0 -0.908 0 0 0 -2.4271 0 0 -2 -0.908 0 2 0 0 0 0 0 0 0 0 11.3498 0 0 -16.3681 0 0 0 0 0 0 0 0 -11.3498 0 0 -23.6319 0 0 0 0 0 -12.7117 0 0 30.7228 0 0 8.9101 0 0 12.7117 0 0 0 0 0 -8.9101 0
0 90.8244 0 -0.618 0 0 0 -1.7634 0 0 -2 -0.618 0 2 0 0 0 0 0 0 0 0 7.7254 0 0 -17.5279 0 0 0 0 0 0 0 0 -7.7254 0 0 -22.4721 0 0 0 0 0 -8.6525 0 0 27.7217 0 0 9.5106 0 0 8.6525 0 0 0 0 0 -9.5106 0
0 91.382 0 -0.3129 0 0 0 -0.9271 0 0 -2 -0.3129 0 2 0 0 0 0 0 0 0 0 3.9109 0 0 -18.7485 0 0 0 0 0 0 0 0 -3.9109 0 0 -21.2515 0 0 0 0 0 -4.3802 0 0 24.0381 0 0 9.8769 0 0 4.3802 0 0 0 0 0 -9.8769 0
